0 GLAST
1 33053U 08029A   13282.71493292  .00001572  00000-0  82842-4 0  4242
2 33053 025.5821 149.5264 0013323 217.0716 204.5075 15.07352620293622
0 GLAST
1 33053U 08029A   13283.77933885  .00001564  00000-0  82329-4 0  4258
2 33053 025.5822 142.3222 0013335 229.6856 220.1022 15.07356213293780
0 GLAST
1 33053U 08029A   13286.82844237  .00001685  00000-0  90102-4 0  4273
2 33053 025.5825 121.6849 0013392 265.7643 205.0194 15.07360931294242
0 GLAST
1 33053U 08029A   13287.95671394  .00002285  00000-0  12863-3 0  4285
2 33053 025.5824 114.0484 0013406 279.1251 207.2069 15.07367139294413
0 GLAST
1 33053U 08029A   13289.59901769  .00001720  00000-0  92313-4 0  4292
2 33053 025.5826 102.9329 0013511 298.2942 118.9308 15.07373385294666
0 GLAST
1 33053U 08029A   13291.79169469  .00001865  00000-0  10161-3 0  4302
2 33053 025.5831 088.0921 0013750 323.6449 137.4742 15.07377885294997
0 GLAST
1 33053U 08029A   13292.79174903  .00002008  00000-0  11082-3 0  4316
2 33053 025.5833 081.3233 0013846 334.9469 164.5389 15.07380774295141
0 GLAST
1 33053U 08029A   13293.84913422  .00002089  00000-0  11598-3 0  4322
2 33053 025.5834 074.1664 0013978 347.0303 142.6022 15.07385534295306
0 GLAST
1 33053U 08029A   13295.49203983  .00002156  00000-0  12025-3 0  4331
2 33053 025.5837 063.0469 0014097 005.4700 058.4448 15.07392089295554
